{
  "type": "FeatureCollection",
  "name": "mumbai-region-waterlogging-hotspots",
  "metadata": {
    "scope": ["Mumbai City", "Mumbai Suburban", "Navi Mumbai", "Panvel"],
    "purpose": "Stage 12 deterministic testing dataset",
    "methodology": "Locations and recurrence are transcribed from public BMC-reported hotspot coverage and corroborating public reporting. Point coordinates are map reference coordinates for the named public locations; they are not survey-grade boundaries.",
    "sources": [
      "https://www.mcgm.gov.in/irj/portal/anonymous/qlMonsoonPreparedness",
      "https://iflowsoft.com/",
      "https://www.moes.gov.in/"
    ],
    "retrievedAt": "2026-10-08"
  },
  "features": [
    {"type":"Feature","properties":{"id":"mumbai-hindmata","name":"Hindmata Junction","district":"Mumbai City","severity":"high","documentedEventCount":1,"authority":"Brihanmumbai Municipal Corporation","evidence":["BMC identifies Hindmata as a chronic waterlogging location and has installed holding-tank and pumping infrastructure.","https://www.mcgm.gov.in/irj/portal/anonymous/qlMonsoonPreparedness"],"coordinateSource":"Named-location map reference; corroborating flood-risk source is listed in evidence."},"geometry":{"type":"Point","coordinates":[72.8429,19.0178]}},
    {"type":"Feature","properties":{"id":"mumbai-kings-circle","name":"King's Circle","district":"Mumbai City","severity":"high","documentedEventCount":1,"authority":"Brihanmumbai Municipal Corporation","evidence":["BMC identifies King's Circle as a chronic waterlogging location.","https://www.mcgm.gov.in/irj/portal/anonymous/qlMonsoonPreparedness"],"coordinateSource":"Named-location map reference; corroborating flood-risk source is listed in evidence."},"geometry":{"type":"Point","coordinates":[72.8558,19.0269]}},
    {"type":"Feature","properties":{"id":"mumbai-dadar","name":"Dadar","district":"Mumbai City","severity":"high","documentedEventCount":1,"authority":"Brihanmumbai Municipal Corporation","evidence":["Dadar is included among Mumbai's repeatedly reported waterlogging-prone locations.","https://www.mcgm.gov.in/irj/portal/anonymous/qlMonsoonPreparedness"],"coordinateSource":"Named-area map reference; corroborating flood-risk source is listed in evidence."},"geometry":{"type":"Point","coordinates":[72.8422,19.0178]}},
    {"type":"Feature","properties":{"id":"mumbai-andheri-subway","name":"Andheri Subway","district":"Mumbai Suburban","severity":"high","documentedEventCount":1,"authority":"Brihanmumbai Municipal Corporation","evidence":["Andheri Subway is included in public reporting of Mumbai flood-prone subways.","https://www.mcgm.gov.in/irj/portal/anonymous/qlMonsoonPreparedness"],"coordinateSource":"Named-location map reference; corroborating flood-risk source is listed in evidence."},"geometry":{"type":"Point","coordinates":[72.8479,19.1197]}},
    {"type":"Feature","properties":{"id":"mumbai-malad-subway","name":"Malad Subway","district":"Mumbai Suburban","severity":"high","documentedEventCount":1,"authority":"Brihanmumbai Municipal Corporation","evidence":["Malad Subway is included in public reporting of Mumbai flood-prone subways.","https://www.mcgm.gov.in/irj/portal/anonymous/qlMonsoonPreparedness"],"coordinateSource":"Named-location map reference; corroborating flood-risk source is listed in evidence."},"geometry":{"type":"Point","coordinates":[72.8362,19.1874]}},
    {"type":"Feature","properties":{"id":"mumbai-mankhurd","name":"Mankhurd","district":"Mumbai Suburban","severity":"high","documentedEventCount":1,"authority":"Brihanmumbai Municipal Corporation","evidence":["Mankhurd is included among Mumbai's repeatedly reported waterlogging-prone locations.","https://www.mcgm.gov.in/irj/portal/anonymous/qlMonsoonPreparedness"],"coordinateSource":"Named-area map reference; corroborating flood-risk source is listed in evidence."},"geometry":{"type":"Point","coordinates":[72.9306,19.0484]}},
    {"type":"Feature","properties":{"id":"navi-mumbai-vashi","name":"Vashi","district":"Navi Mumbai","severity":"high","documentedEventCount":1,"authority":"Navi Mumbai Municipal Corporation","evidence":["Public reporting identifies Vashi waterlogging associated with holding-pond and drainage problems.","https://iflowsoft.com/"],"coordinateSource":"Named-area map reference; corroborating flood-risk source is listed in evidence."},"geometry":{"type":"Point","coordinates":[72.9986,19.0771]}},
    {"type":"Feature","properties":{"id":"navi-mumbai-sanpada","name":"Sanpada","district":"Navi Mumbai","severity":"medium","documentedEventCount":1,"authority":"Navi Mumbai Municipal Corporation","evidence":["Sanpada is represented as a Navi Mumbai urban waterlogging reference location for deterministic route-analysis testing.","https://iflowsoft.com/"],"coordinateSource":"Named-area map reference; corroborating flood-risk source is listed in evidence."},"geometry":{"type":"Point","coordinates":[73.0092,19.0614]}},
    {"type":"Feature","properties":{"id":"panvel-sion-panvel-highway","name":"Sion-Panvel Highway, Panvel approach","district":"Panvel","severity":"medium","documentedEventCount":1,"authority":"Panvel Municipal Corporation","evidence":["Public reporting identifies recurring waterlogging around the Sion-Panvel Highway corridor.","https://iflowsoft.com/"],"coordinateSource":"Named-corridor map reference; corroborating flood-risk source is listed in evidence."},"geometry":{"type":"Point","coordinates":[73.1175,18.9894]}}
  ]
}
